[{"OBJECT_NAME":"STARLINK-6059","OBJECT_ID":"2023-078AZ","EPOCH":"2026-03-09T21:24:17.066016","MEAN_MOTION":14.98328614,"ECCENTRICITY":0.00026337,"INCLINATION":70.0011,"RA_OF_ASC_NODE":343.8217,"ARG_OF_PERICENTER":264.6328,"MEAN_ANOMALY":95.453,"EPHEMERIS_TYPE":0,"CLASSIFICATION_TYPE":"U","NORAD_CAT_ID":56814,"ELEMENT_SET_NO":999,"REV_AT_EPOCH":15271,"BSTAR":2.4703435e-5,"MEAN_MOTION_DOT":2.02e-6,"MEAN_MOTION_DDOT":0},{"OBJECT_NAME":"RAPIDEYE 5","OBJECT_ID":"2008-040B","EPOCH":"2026-03-09T15:17:22.403904","MEAN_MOTION":15.02179038,"ECCENTRICITY":0.0014834,"INCLINATION":97.3944,"RA_OF_ASC_NODE":91.3825,"ARG_OF_PERICENTER":86.9831,"MEAN_ANOMALY":273.3091,"EPHEMERIS_TYPE":0,"CLASSIFICATION_TYPE":"U","NORAD_CAT_ID":33313,"ELEMENT_SET_NO":999,"REV_AT_EPOCH":95055,"BSTAR":0.00014028,"MEAN_MOTION_DOT":1.794e-5,"MEAN_MOTION_DDOT":0}]
